CCSDS_OMM_VERS = 2.0
CREATION_DATE  = 
ORIGINATOR     = 

OBJECT_NAME    = STARLINK-35429
OBJECT_ID      = 2025-270C
CENTER_NAME    = EARTH
REF_FRAME      = TEME
TIME_SYSTEM    = UTC
MEAN_ELEMENT_THEORY = SGP/SGP4

EPOCH          = 2025-12-12T20:00:01.999872
MEAN_MOTION    = 15.50599520
ECCENTRICITY   = .00018753
INCLINATION    = 42.9995
RA_OF_ASC_NODE = 192.1880
ARG_OF_PERICENTER = 265.3644
MEAN_ANOMALY   = 287.0337

EPHEMERIS_TYPE = 0
CLASSIFICATION_TYPE = U
NORAD_CAT_ID   = 66590
ELEMENT_SET_NO = 999
REV_AT_EPOCH   = 452
BSTAR          = -.13316127E-2
MEAN_MOTION_DOT = -.7775E-3
MEAN_MOTION_DDOT = 0

CCSDS_OMM_VERS = 2.0
CREATION_DATE  = 
ORIGINATOR     = 

OBJECT_NAME    = STARLINK-36058
OBJECT_ID      = 2025-270D
CENTER_NAME    = EARTH
REF_FRAME      = TEME
TIME_SYSTEM    = UTC
MEAN_ELEMENT_THEORY = SGP/SGP4

EPOCH          = 2025-12-12T20:00:01.999872
MEAN_MOTION    = 15.50595298
ECCENTRICITY   = .00033107
INCLINATION    = 42.9994
RA_OF_ASC_NODE = 192.1783
ARG_OF_PERICENTER = 269.8851
MEAN_ANOMALY   = 286.2192

EPHEMERIS_TYPE = 0
CLASSIFICATION_TYPE = U
NORAD_CAT_ID   = 66591
ELEMENT_SET_NO = 999
REV_AT_EPOCH   = 441
BSTAR          = .13294324E-3
MEAN_MOTION_DOT = .7469E-4
MEAN_MOTION_DDOT = 0

CCSDS_OMM_VERS = 2.0
CREATION_DATE  = 
ORIGINATOR     = 

OBJECT_NAME    = STARLINK-36066
OBJECT_ID      = 2025-270E
CENTER_NAME    = EARTH
REF_FRAME      = TEME
TIME_SYSTEM    = UTC
MEAN_ELEMENT_THEORY = SGP/SGP4

EPOCH          = 2025-12-12T20:00:01.999872
MEAN_MOTION    = 15.48651574
ECCENTRICITY   = .0001045
INCLINATION    = 42.9993
RA_OF_ASC_NODE = 192.1770
ARG_OF_PERICENTER = 261.5590
MEAN_ANOMALY   = 295.1029

EPHEMERIS_TYPE = 0
CLASSIFICATION_TYPE = U
NORAD_CAT_ID   = 66592
ELEMENT_SET_NO = 999
REV_AT_EPOCH   = 431
BSTAR          = -.42843345E-1
MEAN_MOTION_DOT = -.2085125E-1
MEAN_MOTION_DDOT = 0

CCSDS_OMM_VERS = 2.0
CREATION_DATE  = 
ORIGINATOR     = 

OBJECT_NAME    = STARLINK-36031
OBJECT_ID      = 2025-270F
CENTER_NAME    = EARTH
REF_FRAME      = TEME
TIME_SYSTEM    = UTC
MEAN_ELEMENT_THEORY = SGP/SGP4

EPOCH          = 2025-12-12T20:00:01.999872
MEAN_MOTION    = 15.50530097
ECCENTRICITY   = .0001754
INCLINATION    = 42.9995
RA_OF_ASC_NODE = 192.1685
ARG_OF_PERICENTER = 276.5910
MEAN_ANOMALY   = 283.5317

EPHEMERIS_TYPE = 0
CLASSIFICATION_TYPE = U
NORAD_CAT_ID   = 66593
ELEMENT_SET_NO = 999
REV_AT_EPOCH   = 441
BSTAR          = .11806467E-3
MEAN_MOTION_DOT = .6579E-4
MEAN_MOTION_DDOT = 0

CCSDS_OMM_VERS = 2.0
CREATION_DATE  = 
ORIGINATOR     = 

OBJECT_NAME    = STARLINK-36032
OBJECT_ID      = 2025-270G
CENTER_NAME    = EARTH
REF_FRAME      = TEME
TIME_SYSTEM    = UTC
MEAN_ELEMENT_THEORY = SGP/SGP4

EPOCH          = 2025-12-12T20:00:01.999872
MEAN_MOTION    = 15.50629322
ECCENTRICITY   = .00016597
INCLINATION    = 42.9995
RA_OF_ASC_NODE = 192.1640
ARG_OF_PERICENTER = 281.1739
MEAN_ANOMALY   = 280.7985

EPHEMERIS_TYPE = 0
CLASSIFICATION_TYPE = U
NORAD_CAT_ID   = 66594
ELEMENT_SET_NO = 999
REV_AT_EPOCH   = 415
BSTAR          = -.2190819E-2
MEAN_MOTION_DOT = -.127034E-2
MEAN_MOTION_DDOT = 0

CCSDS_OMM_VERS = 2.0
CREATION_DATE  = 
ORIGINATOR     = 

OBJECT_NAME    = STARLINK-35711
OBJECT_ID      = 2025-270H
CENTER_NAME    = EARTH
REF_FRAME      = TEME
TIME_SYSTEM    = UTC
MEAN_ELEMENT_THEORY = SGP/SGP4

EPOCH          = 2025-12-12T20:00:01.999872
MEAN_MOTION    = 15.50694090
ECCENTRICITY   = .00009848
INCLINATION    = 42.9994
RA_OF_ASC_NODE = 192.1593
ARG_OF_PERICENTER = 261.4299
MEAN_ANOMALY   = 302.3488

EPHEMERIS_TYPE = 0
CLASSIFICATION_TYPE = U
NORAD_CAT_ID   = 66595
ELEMENT_SET_NO = 999
REV_AT_EPOCH   = 452
BSTAR          = -.23548875E-2
MEAN_MOTION_DOT = -.136661E-2
MEAN_MOTION_DDOT = 0

CCSDS_OMM_VERS = 2.0
CREATION_DATE  = 
ORIGINATOR     = 

OBJECT_NAME    = STARLINK-35811
OBJECT_ID      = 2025-270J
CENTER_NAME    = EARTH
REF_FRAME      = TEME
TIME_SYSTEM    = UTC
MEAN_ELEMENT_THEORY = SGP/SGP4

EPOCH          = 2025-12-12T20:00:01.999872
MEAN_MOTION    = 15.44519662
ECCENTRICITY   = .00011603
INCLINATION    = 42.9993
RA_OF_ASC_NODE = 192.1901
ARG_OF_PERICENTER = 265.6197
MEAN_ANOMALY   = 285.5496

EPHEMERIS_TYPE = 0
CLASSIFICATION_TYPE = U
NORAD_CAT_ID   = 66596
ELEMENT_SET_NO = 999
REV_AT_EPOCH   = 452
BSTAR          = -.48783038E-1
MEAN_MOTION_DOT = -.2058537E-1
MEAN_MOTION_DDOT = 0

CCSDS_OMM_VERS = 2.0
CREATION_DATE  = 
ORIGINATOR     = 

OBJECT_NAME    = STARLINK-35820
OBJECT_ID      = 2025-270K
CENTER_NAME    = EARTH
REF_FRAME      = TEME
TIME_SYSTEM    = UTC
MEAN_ELEMENT_THEORY = SGP/SGP4

EPOCH          = 2025-12-12T20:00:01.999872
MEAN_MOTION    = 15.50615245
ECCENTRICITY   = .00013853
INCLINATION    = 42.9996
RA_OF_ASC_NODE = 192.1488
ARG_OF_PERICENTER = 273.4686
MEAN_ANOMALY   = 294.2494

EPHEMERIS_TYPE = 0
CLASSIFICATION_TYPE = U
NORAD_CAT_ID   = 66597
ELEMENT_SET_NO = 999
REV_AT_EPOCH   = 452
BSTAR          = -.40500454E-1
MEAN_MOTION_DOT = -.2111192E-1
MEAN_MOTION_DDOT = 0

CCSDS_OMM_VERS = 2.0
CREATION_DATE  = 
ORIGINATOR     = 

OBJECT_NAME    = STARLINK-35981
OBJECT_ID      = 2025-270L
CENTER_NAME    = EARTH
REF_FRAME      = TEME
TIME_SYSTEM    = UTC
MEAN_ELEMENT_THEORY = SGP/SGP4

EPOCH          = 2025-12-12T20:00:01.999872
MEAN_MOTION    = 15.50625861
ECCENTRICITY   = .0001406
INCLINATION    = 42.9995
RA_OF_ASC_NODE = 192.1445
ARG_OF_PERICENTER = 266.1415
MEAN_ANOMALY   = 303.5024

EPHEMERIS_TYPE = 0
CLASSIFICATION_TYPE = U
NORAD_CAT_ID   = 66598
ELEMENT_SET_NO = 999
REV_AT_EPOCH   = 425
BSTAR          = -.20956174E-2
MEAN_MOTION_DOT = -.121594E-2
MEAN_MOTION_DDOT = 0

CCSDS_OMM_VERS = 2.0
CREATION_DATE  = 
ORIGINATOR     = 

OBJECT_NAME    = STARLINK-35930
OBJECT_ID      = 2025-270M
CENTER_NAME    = EARTH
REF_FRAME      = TEME
TIME_SYSTEM    = UTC
MEAN_ELEMENT_THEORY = SGP/SGP4

EPOCH          = 2025-12-12T20:00:01.999872
MEAN_MOTION    = 15.50581495
ECCENTRICITY   = .00002269
INCLINATION    = 42.9996
RA_OF_ASC_NODE = 192.1408
ARG_OF_PERICENTER = 322.8567
MEAN_ANOMALY   = 248.7222

EPHEMERIS_TYPE = 0
CLASSIFICATION_TYPE = U
NORAD_CAT_ID   = 66599
ELEMENT_SET_NO = 999
REV_AT_EPOCH   = 441
BSTAR          = -.89004481E-3
MEAN_MOTION_DOT = -.5221E-3
MEAN_MOTION_DDOT = 0

CCSDS_OMM_VERS = 2.0
CREATION_DATE  = 
ORIGINATOR     = 

OBJECT_NAME    = STARLINK-35980
OBJECT_ID      = 2025-270N
CENTER_NAME    = EARTH
REF_FRAME      = TEME
TIME_SYSTEM    = UTC
MEAN_ELEMENT_THEORY = SGP/SGP4

EPOCH          = 2025-12-12T20:00:01.999872
MEAN_MOTION    = 15.50751918
ECCENTRICITY   = .00025719
INCLINATION    = 42.9996
RA_OF_ASC_NODE = 192.1359
ARG_OF_PERICENTER = 268.7145
MEAN_ANOMALY   = 304.7041

EPHEMERIS_TYPE = 0
CLASSIFICATION_TYPE = U
NORAD_CAT_ID   = 66600
ELEMENT_SET_NO = 999
REV_AT_EPOCH   = 431
BSTAR          = -.53710252E-2
MEAN_MOTION_DOT = -.305399E-2
MEAN_MOTION_DDOT = 0

CCSDS_OMM_VERS = 2.0
CREATION_DATE  = 
ORIGINATOR     = 

OBJECT_NAME    = STARLINK-35978
OBJECT_ID      = 2025-270P
CENTER_NAME    = EARTH
REF_FRAME      = TEME
TIME_SYSTEM    = UTC
MEAN_ELEMENT_THEORY = SGP/SGP4

EPOCH          = 2025-12-12T20:00:01.999872
MEAN_MOTION    = 15.50603718
ECCENTRICITY   = .00013079
INCLINATION    = 42.9994
RA_OF_ASC_NODE = 192.1304
ARG_OF_PERICENTER = 277.2177
MEAN_ANOMALY   = 298.1849

EPHEMERIS_TYPE = 0
CLASSIFICATION_TYPE = U
NORAD_CAT_ID   = 66601
ELEMENT_SET_NO = 999
REV_AT_EPOCH   = 425
BSTAR          = -.15099776E-2
MEAN_MOTION_DOT = -.88012E-3
MEAN_MOTION_DDOT = 0

