STARLINK-35429          
1 66590U 25270C   25346.83335648 -.00077750  00000+0 -13316-2 0  9995
2 66590  42.9995 192.1880 0001875 265.3644 287.0337 15.50599520  4528
STARLINK-36058          
1 66591U 25270D   25346.83335648  .00007469  00000+0  13294-3 0  9990
2 66591  42.9994 192.1783 0003310 269.8851 286.2192 15.50595298  4411
STARLINK-36066          
1 66592U 25270E   25346.83335648 -.02085125  00000+0 -42843-1 0  9990
2 66592  42.9993 192.1770 0001045 261.5590 295.1029 15.48651574  4313
STARLINK-36031          
1 66593U 25270F   25346.83335648  .00006579  00000+0  11806-3 0  9990
2 66593  42.9995 192.1685 0001754 276.5910 283.5317 15.50530097  4411
STARLINK-36032          
1 66594U 25270G   25346.83335648 -.00127034  00000+0 -21908-2 0  9996
2 66594  42.9995 192.1640 0001659 281.1739 280.7985 15.50629322  4159
STARLINK-35711          
1 66595U 25270H   25346.83335648 -.00136661  00000+0 -23549-2 0  9996
2 66595  42.9994 192.1593 0000984 261.4299 302.3488 15.50694090  4522
STARLINK-35811          
1 66596U 25270J   25346.83335648 -.02058537  00000+0 -48783-1 0  9990
2 66596  42.9993 192.1901 0001160 265.6197 285.5496 15.44519662  4520
STARLINK-35820          
1 66597U 25270K   25346.83335648 -.02111192  00000+0 -40500-1 0  9997
2 66597  42.9996 192.1488 0001385 273.4686 294.2494 15.50615245  4529
STARLINK-35981          
1 66598U 25270L   25346.83335648 -.00121594  00000+0 -20956-2 0  9997
2 66598  42.9995 192.1445 0001406 266.1415 303.5024 15.50625861  4253
STARLINK-35930          
1 66599U 25270M   25346.83335648 -.00052210  00000+0 -89004-3 0  9996
2 66599  42.9996 192.1408 0000226 322.8567 248.7222 15.50581495  4413
STARLINK-35980          
1 66600U 25270N   25346.83335648 -.00305399  00000+0 -53710-2 0  9992
2 66600  42.9996 192.1359 0002571 268.7145 304.7041 15.50751918  4316
STARLINK-35978          
1 66601U 25270P   25346.83335648 -.00088012  00000+0 -15100-2 0  9994
2 66601  42.9994 192.1304 0001307 277.2177 298.1849 15.50603718  4250
